[
    {
        "Altitude(m)": 611965.2229104608,
        "Argument of Periapsis(deg)": 0.0,
        "Eccentricity": 0.0,
        "Inclination(deg)": 60.0,
        "Latitude(deg)": 59.14027540174479,
        "Longitude(deg)": 148.96994284986272,
        "Mean Anomaly(deg)": 81.8182,
        "RAAN(deg)": 175.0,
        "Satellite Name": "Test1 775",
        "Satellite Number": 775,
        "Semi-Major Axis(m)": 6980739.136638005,
        "Time(s)": 0
    },
    {
        "Altitude(m)": 611995.8478195858,
        "Argument of Periapsis(deg)": 0.00010418945913296404,
        "Eccentricity": 0.0,
        "Inclination(deg)": 60.0,
        "Latitude(deg)": 59.28337388056429,
        "Longitude(deg)": 150.10330949344402,
        "Mean Anomaly(deg)": 82.43830614546187,
        "RAAN(deg)": 174.99957995086024,
        "Satellite Name": "Test1 775",
        "Satellite Number": 775,
        "Semi-Major Axis(m)": 6980739.136638005,
        "Time(s)": 10
    }
]